SL-3 R/B                
1 19046U 88032B   26069.19340183  .00006493  00000+0  30307-3 0  9990
2 19046  97.5196  52.4425 0024457 229.5819 130.3282 15.19917908 52184
SL-16 R/B               
1 19120U 88039B   26069.12123148 -.00000053  00000+0 -22013-5 0  9998
2 19120  71.0134  67.6348 0022815 333.7247  26.2719 14.19615448958442
COSMOS 1953             
1 19210U 88050A   26069.21481209  .00009900  00000+0  35460-3 0  9992
2 19210  82.5104 157.7190 0012465 120.7038 239.5431 15.28538815 37861
SL-8 R/B                
1 19257U 88053B   26069.13711505  .00000285  00000+0  10093-3 0  9994
2 19257  74.0459 111.6416 0021432 290.8538  98.8982 14.38916031976666
COSMOS 1975             
1 19573U 88093A   26069.11771984  .00007305  00000+0  26510-3 0  9995
2 19573  82.5180 117.2554 0012137 162.0670 198.1000 15.28077885 19473
SL-14 R/B               
1 19574U 88093B   26068.99958683  .00000761  00000+0  84679-4 0  9994
2 19574  82.5306  41.7526 0021744  40.5230  23.6778 14.85656984  1065
SL-16 R/B               
1 19650U 88102B   26069.18747005  .00000309  00000+0  17995-3 0  9990
2 19650  71.0001 150.4502 0013986   0.9088 359.2058 14.16152371926966
INTERCOSMOS 24          
1 20261U 89080A   26069.12025862  .00000859  00000+0  25594-3 0  9994
2 20261  82.6026 104.1239 1186690 291.8200  56.0884 12.59558521666855
SL-14 R/B               
1 20262U 89080C   26069.19598931  .00000719  00000+0  21193-3 0  9990
2 20262  82.5975 172.8613 1230592 183.5927 175.5669 12.50494456660219
DELTA 1 R/B             
1 20323U 89089B   26069.10366902  .00000405  00000+0  10851-3 0  9990
2 20323  97.0705 276.4765 0070497 120.6902 240.1268 14.50663290895791
ARIANE 40 R/B           
1 20443U 90005H   26069.16098644  .00000328  00000+0  11796-3 0  9997
2 20443  98.3083 129.8085 0009885 197.1358 162.9498 14.39870849892879
DELTA 2 R/B(1)          
1 20453U 90008B   26068.37460026  .00064698  00000+0  75711-3 0  9997
2 20453  35.6039 176.9220 0085439 255.8292 103.2939 15.55957726926085
